{
  "type": "FeatureCollection",
  "features": [
    {
      "type": "Feature",
      "properties": {
        "norad_id": 31058,
        "name": "FENGYUN 1C DEB",
        "group": "fengyun-1c-debris",
        "lat": -70.18530372729522,
        "lon": 104.42772485432083,
        "alt_km": 713.5577065129028,
        "timestamp": "2025-12-26T12:57:39.553099+00:00",
        "meta_object_name": "FENGYUN 1C DEB",
        "meta_object_id": "1999-025BFC",
        "meta_epoch": "2025-12-21T14:43:24.738528",
        "meta_mean_motion": 14.76461843,
        "meta_eccentricity": 0.00952203,
        "meta_inclination": 99.5682,
        "meta_ra_of_asc_node": 306.5125,
        "meta_arg_of_pericenter": 79.2038,
        "meta_mean_anomaly": 281.9867,
        "meta_ephemeris_type": 0,
        "meta_classification_type": "U",
        "meta_norad_cat_id": 31058,
        "meta_element_set_no": 999,
        "meta_rev_at_epoch": 99680,
        "meta_bstar": 0.0010269728,
        "meta_mean_motion_dot": 7.633e-05,
        "meta_mean_motion_ddot": 0,
        "tle_line1": "1 31058U 99025BFC 25355.61348077  .00007633  00000+0  10270-2 0  9998",
        "tle_line2": "2 31058  99.5682 306.5125 0095220  79.2038 281.9867 14.76461843996804"
      },
      "geometry": {
        "type": "Point",
        "coordinates": [
          104.42772485432083,
          -70.18530372729522
        ]
      }
    },
    {
      "type": "Feature",
      "properties": {
        "norad_id": 31062,
        "name": "FENGYUN 1C DEB",
        "group": "fengyun-1c-debris",
        "lat": 74.50542984852954,
        "lon": 37.02133871725286,
        "alt_km": 1098.1043283734662,
        "timestamp": "2025-12-26T12:57:39.553110+00:00",
        "meta_object_name": "FENGYUN 1C DEB",
        "meta_object_id": "1999-025BFG",
        "meta_epoch": "2025-12-24T18:39:18.485856",
        "meta_mean_motion": 13.75697758,
        "meta_eccentricity": 0.01713774,
        "meta_inclination": 98.997,
        "meta_ra_of_asc_node": 180.503,
        "meta_arg_of_pericenter": 285.781,
        "meta_mean_anomaly": 91.5783,
        "meta_ephemeris_type": 0,
        "meta_classification_type": "U",
        "meta_norad_cat_id": 31062,
        "meta_element_set_no": 999,
        "meta_rev_at_epoch": 94399,
        "meta_bstar": 0.00024224696,
        "meta_mean_motion_dot": 2.18e-06,
        "meta_mean_motion_ddot": 0,
        "tle_line1": "1 31062U 99025BFG 25358.77729729  .00000218  00000+0  24225-3 0  9998",
        "tle_line2": "2 31062  98.9970 180.5030 0171377 285.7810  91.5783 13.75697758943995"
      },
      "geometry": {
        "type": "Point",
        "coordinates": [
          37.02133871725286,
          74.50542984852954
        ]
      }
    },
    {
      "type": "Feature",
      "properties": {
        "norad_id": 31064,
        "name": "FENGYUN 1C DEB",
        "group": "fengyun-1c-debris",
        "lat": 41.80855722309615,
        "lon": -24.896158760897016,
        "alt_km": 783.3602071937294,
        "timestamp": "2025-12-26T12:57:39.553120+00:00",
        "meta_object_name": "FENGYUN 1C DEB",
        "meta_object_id": "1999-025BFJ",
        "meta_epoch": "2025-12-25T04:44:59.881920",
        "meta_mean_motion": 14.22163246,
        "meta_eccentricity": 0.024077,
        "meta_inclination": 98.575,
        "meta_ra_of_asc_node": 341.5529,
        "meta_arg_of_pericenter": 325.4003,
        "meta_mean_anomaly": 46.8485,
        "meta_ephemeris_type": 0,
        "meta_classification_type": "U",
        "meta_norad_cat_id": 31064,
        "meta_element_set_no": 999,
        "meta_rev_at_epoch": 97432,
        "meta_bstar": 0.00037871,
        "meta_mean_motion_dot": 1.078e-05,
        "meta_mean_motion_ddot": 0,
        "tle_line1": "1 31064U 99025BFJ 25359.19791530  .00001078  00000+0  37871-3 0  9992",
        "tle_line2": "2 31064  98.5750 341.5529 0240770 325.4003  46.8485 14.22163246974327"
      },
      "geometry": {
        "type": "Point",
        "coordinates": [
          -24.896158760897016,
          41.80855722309615
        ]
      }
    },
    {
      "type": "Feature",
      "properties": {
        "norad_id": 31065,
        "name": "FENGYUN 1C DEB",
        "group": "fengyun-1c-debris",
        "lat": -81.51793696996062,
        "lon": 112.28684098428558,
        "alt_km": 801.0922804014217,
        "timestamp": "2025-12-26T12:57:39.553131+00:00",
        "meta_object_name": "FENGYUN 1C DEB",
        "meta_object_id": "1999-025BFK",
        "meta_epoch": "2025-12-24T07:34:42.003552",
        "meta_mean_motion": 14.28222033,
        "meta_eccentricity": 0.00346758,
        "meta_inclination": 98.4648,
        "meta_ra_of_asc_node": 17.0717,
        "meta_arg_of_pericenter": 357.2807,
        "meta_mean_anomaly": 2.8181,
        "meta_ephemeris_type": 0,
        "meta_classification_type": "U",
        "meta_norad_cat_id": 31065,
        "meta_element_set_no": 999,
        "meta_rev_at_epoch": 64743,
        "meta_bstar": 0.00089045947,
        "meta_mean_motion_dot": 2.191e-05,
        "meta_mean_motion_ddot": 0,
        "tle_line1": "1 31065U 99025BFK 25358.31576393  .00002191  00000+0  89046-3 0  9992",
        "tle_line2": "2 31065  98.4648  17.0717 0034675 357.2807   2.8181 14.28222033647437"
      },
      "geometry": {
        "type": "Point",
        "coordinates": [
          112.28684098428558,
          -81.51793696996062
        ]
      }
    },
    {
      "type": "Feature",
      "properties": {
        "norad_id": 31068,
        "name": "FENGYUN 1C DEB",
        "group": "fengyun-1c-debris",
        "lat": 80.83581858872331,
        "lon": -88.15686725670287,
        "alt_km": 735.6233727546587,
        "timestamp": "2025-12-26T12:57:39.553141+00:00",
        "meta_object_name": "FENGYUN 1C DEB",
        "meta_object_id": "1999-025BFN",
        "meta_epoch": "2025-12-26T04:02:23.522784",
        "meta_mean_motion": 14.09200241,
        "meta_eccentricity": 0.01658062,
        "meta_inclination": 98.6304,
        "meta_ra_of_asc_node": 341.7798,
        "meta_arg_of_pericenter": 80.3434,
        "meta_mean_anomaly": 281.6423,
        "meta_ephemeris_type": 0,
        "meta_classification_type": "U",
        "meta_norad_cat_id": 31068,
        "meta_element_set_no": 999,
        "meta_rev_at_epoch": 96544,
        "meta_bstar": 0.00024464667,
        "meta_mean_motion_dot": 4.42e-06,
        "meta_mean_motion_ddot": 0,
        "tle_line1": "1 31068U 99025BFN 25360.16832781  .00000442  00000+0  24465-3 0  9998",
        "tle_line2": "2 31068  98.6304 341.7798 0165806  80.3434 281.6423 14.09200241965444"
      },
      "geometry": {
        "type": "Point",
        "coordinates": [
          -88.15686725670287,
          80.83581858872331
        ]
      }
    },
    {
      "type": "Feature",
      "properties": {
        "norad_id": 31069,
        "name": "FENGYUN 1C DEB",
        "group": "fengyun-1c-debris",
        "lat": -60.61525860477013,
        "lon": 178.63376282668483,
        "alt_km": 718.5489583569124,
        "timestamp": "2025-12-26T12:57:39.553151+00:00",
        "meta_object_name": "FENGYUN 1C DEB",
        "meta_object_id": "1999-025BFP",
        "meta_epoch": "2025-12-24T06:51:36.664992",
        "meta_mean_motion": 14.57173956,
        "meta_eccentricity": 0.01042029,
        "meta_inclination": 99.1001,
        "meta_ra_of_asc_node": 159.6357,
        "meta_arg_of_pericenter": 42.6604,
        "meta_mean_anomaly": 318.2624,
        "meta_ephemeris_type": 0,
        "meta_classification_type": "U",
        "meta_norad_cat_id": 31069,
        "meta_element_set_no": 999,
        "meta_rev_at_epoch": 98854,
        "meta_bstar": 0.0006394022,
        "meta_mean_motion_dot": 3.049e-05,
        "meta_mean_motion_ddot": 0,
        "tle_line1": "1 31069U 99025BFP 25358.28584103  .00003049  00000+0  63940-3 0  9998",
        "tle_line2": "2 31069  99.1001 159.6357 0104202  42.6604 318.2624 14.57173956988546"
      },
      "geometry": {
        "type": "Point",
        "coordinates": [
          178.63376282668483,
          -60.61525860477013
        ]
      }
    },
    {
      "type": "Feature",
      "properties": {
        "norad_id": 31071,
        "name": "FENGYUN 1C DEB",
        "group": "fengyun-1c-debris",
        "lat": 5.6511313493012985,
        "lon": -99.74897248740356,
        "alt_km": 702.3940745517202,
        "timestamp": "2025-12-26T12:57:39.553161+00:00",
        "meta_object_name": "FENGYUN 1C DEB",
        "meta_object_id": "1999-025BFR",
        "meta_epoch": "2025-12-23T11:25:25.973184",
        "meta_mean_motion": 14.52716038,
        "meta_eccentricity": 0.00560363,
        "meta_inclination": 99.0398,
        "meta_ra_of_asc_node": 76.049,
        "meta_arg_of_pericenter": 249.166,
        "meta_mean_anomaly": 110.3527,
        "meta_ephemeris_type": 0,
        "meta_classification_type": "U",
        "meta_norad_cat_id": 31071,
        "meta_element_set_no": 999,
        "meta_rev_at_epoch": 65650,
        "meta_bstar": 0.0011437135,
        "meta_mean_motion_dot": 4.736e-05,
        "meta_mean_motion_ddot": 0,
        "tle_line1": "1 31071U 99025BFR 25357.47599506  .00004736  00000+0  11437-2 0  9991",
        "tle_line2": "2 31071  99.0398  76.0490 0056036 249.1660 110.3527 14.52716038656504"
      },
      "geometry": {
        "type": "Point",
        "coordinates": [
          -99.74897248740356,
          5.6511313493012985
        ]
      }
    }
  ]
}